#aV2011  8 17  0  0   .00000000      96 DD+AD WGS84 FIT  NGA
## 1649 259200.00000000   900.00000000 55790  .0000000000000
+   32     1  2  3  4  5  6  7  8  9 10 11 12 13 14 15 16 17
+         18 19 20 21 22 23 24 25 26 27 28 29 30 31 32  0  0
+          0  0  0  0  0  0  0  0  0  0  0  0  0  0  0  0  0
+          0  0  0  0  0  0  0  0  0  0  0  0  0  0  0  0  0
+          0  0  0  0  0  0  0  0  0  0  0  0  0  0  0  0  0
++         0  0  0  0  0  0  0  0  0  0  0  0  0  0  0  0  0
++         0  0  0  0  0  0  0  0  0  0  0  0  0  0  0  0  0
++         0  0  0  0  0  0  0  0  0  0  0  0  0  0  0  0  0
++         0  0  0  0  0  0  0  0  0  0  0  0  0  0  0  0  0
++         0  0  0  0  0  0  0  0  0  0  0  0  0  0  0  0  0
%c cc cc ccc ccc cccc cccc cccc cccc ccccc ccccc ccccc ccccc
%c cc cc ccc ccc cccc cccc cccc cccc ccccc ccccc ccccc ccccc
%f  0.0000000  0.000000000  0.00000000000  0.000000000000000
%f  0.0000000  0.000000000  0.00000000000  0.000000000000000
%i    0    0    0    0      0      0      0      0         0
%i    0    0    0    0      0      0      0      0         0
/*      NGA, ST. LOUIS,MO.                                  
/*   EPHEMERIS COMPUTED FROM  3 DAYS OF DATA                
/* CCCCCCCCCCCCCCCCCCCCCCCCCCCCCCCCCCCCCCCCCCCCCCCCCCCCCCCCC
/* CCCCCCCCCCCCCCCCCCCCCCCCCCCCCCCCCCCCCCCCCCCCCCCCCCCCCCCCC
*  2011  8 17 16  0   .00000000                                                 
P  1    285.301015 -15959.855710 -21285.887113     -7.365005                    
V  1  25508.178032  -8651.857440   6933.429355      -.007509                    
P  2 -20085.132190  14508.422093   8927.243266    351.741032                    
V  2 -11957.162738    675.045201 -28693.280086       .016983                    
P  3  10960.584731 -19773.580592  13253.583813    756.078853                    
V  3   2350.649710  17899.242315  24283.044453       .048886                    
P  4 -25768.452294   5027.742878  -5309.146515    204.205519                    
V  4   5015.714576  -5081.024776 -30064.854619       .110394                    
P  5 -10765.320535  11020.382871  21627.973901   -205.244596                    
V  5 -20930.162204 -17857.640549  -1209.462702      -.054106                    
P  6  14199.045233 -15197.632444  16522.710082    -94.158522                    
V  6   -283.282937  21016.593682  19992.307844       .101935                    
P  7 -15933.670854  -8528.311378  19549.229617     22.469605                    
V  7  23035.235966  -8956.268686  14643.595037       .016696                    
P  8 -22852.382022  -3195.476501  13680.393514      8.901425                    
V  8  16259.050604  -5181.234482  25461.151821       .002815                    
P  9  -3930.051349  16433.730973 -21052.403925     99.785287                    
V  9 -23995.885644   8367.757719  11293.707196       .023984                    
P 10 -21615.506047  -5203.851286  14586.418847    -10.241038                    
V 10 -12582.632135 -14119.183749 -22959.697285      -.011936                    
P 11   4184.398891 -19884.666882 -17279.900318   -177.763130                    
V 11  19567.677905  -9862.320620  16760.347264      -.033413                    
P 12   7639.361886  20478.786813 -15202.160544     16.433381                    
V 12 -15449.034137 -11541.253463 -23126.000640       .024424                    
P 13  -5707.912618 -19980.326773  16356.019666    255.937776                    
V 13   6847.197202 -19904.865862 -21814.504664      -.018115                    
P 14  14859.701125    602.496653 -21826.862403    167.534393                    
V 14  -6390.725430  27335.831933  -3714.071209       .019606                    
P 15  -4220.548946  26127.903209    -90.703652   -110.353192                    
V 15  -3317.437344   -416.897812  31603.825409       .017587                    
P 16   9931.547050 -11065.559328  22020.130253   -192.293386                    
V 16  20657.887040  18724.336267    385.910421      -.022935                    
P 17 -15422.954699    564.241499 -21448.844187    178.849565                    
V 17   5328.758983 -27085.905055  -4741.580097      -.014506                    
P 18  20524.659805  17136.096468   -878.197593    152.747378                    
V 18  -1122.973800   3555.882247  30833.590730       .018750                    
P 19   8405.557203 -24887.040561   2199.071025   -173.964844                    
V 19   2301.813833   3579.247769  31799.337183      -.040883                    
P 20  -9727.217623 -20651.691047 -13769.787664     51.826184                    
V 20  15312.653977   8515.573142 -23771.448384       .004167                    
P 21  19122.725997   7270.491880  17673.995667   -165.300777                    
V 21 -19741.264019   8619.498585  17655.516079      -.025516                    
P 22  22229.689452   7082.384720 -12618.072992    145.311401                    
V 22  10235.449780  13093.314197  24909.171922      -.002788                    
P 23   -901.415275 -25047.858460   8229.526239    283.334955                    
V 23   4792.953459  -9787.564863 -29673.607534      -.029796                    
P 24    838.155821 -16019.445089 -21073.509179    416.097254                    
V 24  26092.377299  -6876.856151   6556.496108       .032684                    
P 25  17246.557303  19417.798775  -5658.703275     14.403350                    
V 25  -7142.458494  -2577.633111 -30736.991254       .017849                    
P 26 -12171.884792  21062.461370   9576.258555   -126.662320                    
V 26   1216.708216 -13255.628616  29305.781722      -.124328                    
P 27 -10296.138294  16583.917394 -17190.506582    295.799884                    
V 27 -22150.312210   7138.839125  19783.024480       .039295                    
P 28 -21875.121549 -11271.202310  -9791.775027     60.286712                    
V 28  -8196.428818 -10419.075708  28530.144353       .028836                    
P 29   6837.849594  20186.550548  15948.328693    232.117132                    
V 29  -6217.030799  19203.797502 -21692.313522       .030090                    
P 30  17040.952955  18829.483523  -8225.531544     93.434368                    
V 30  -9672.025806  -3450.317343 -29299.722791      -.020152                    
P 31  25542.120419  -7410.168658  -1892.751428    127.774317                    
V 31  -1827.070220   2768.509564 -31919.455154       .055915                    
P 32  -1168.374468 -19398.443607 -18018.848560   -312.249725                    
V 32  17426.418378  15536.959884 -17171.116348      -.068919                    
EOF
